[{"OBJECT_NAME":"OBJECT D","OBJECT_ID":"2024-203D","EPOCH":"2026-03-09T23:01:14.628576","MEAN_MOTION":15.25394324,"ECCENTRICITY":0.00105281,"INCLINATION":97.4343,"RA_OF_ASC_NODE":139.6527,"ARG_OF_PERICENTER":340.1906,"MEAN_ANOMALY":19.8921,"EPHEMERIS_TYPE":0,"CLASSIFICATION_TYPE":"U","NORAD_CAT_ID":61872,"ELEMENT_SET_NO":999,"REV_AT_EPOCH":7378,"BSTAR":0.00059366578,"MEAN_MOTION_DOT":0.00014956,"MEAN_MOTION_DDOT":0},{"OBJECT_NAME":"STARLINK-36529","OBJECT_ID":"2026-008N","EPOCH":"2026-03-09T09:16:41.737152","MEAN_MOTION":15.27606518,"ECCENTRICITY":0.00022151,"INCLINATION":42.9927,"RA_OF_ASC_NODE":207.122,"ARG_OF_PERICENTER":130.3915,"MEAN_ANOMALY":229.713,"EPHEMERIS_TYPE":0,"CLASSIFICATION_TYPE":"U","NORAD_CAT_ID":67457,"ELEMENT_SET_NO":999,"REV_AT_EPOCH":952,"BSTAR":0.0012853358,"MEAN_MOTION_DOT":0.00035307,"MEAN_MOTION_DDOT":0}]
